OBJECT_NAME,OBJECT_ID,EPOCH,MEAN_MOTION,ECCENTRICITY,INCLINATION,RA_OF_ASC_NODE,ARG_OF_PERICENTER,MEAN_ANOMALY,EPHEMERIS_TYPE,CLASSIFICATION_TYPE,NORAD_CAT_ID,ELEMENT_SET_NO,REV_AT_EPOCH,BSTAR,MEAN_MOTION_DOT,MEAN_MOTION_DDOT
STARLINK-34435,2025-137J,2026-06-09T14:09:32.143968,15.30224947,.00015562,53.1593,268.4868,99.3188,260.7989,0,U,64602,999,5480,.58432484E-3,.17E-3,0
STARLINK-34475,2025-137K,2026-06-09T14:00:24.677280,15.30227290,.00014545,53.1602,268.4479,99.1047,261.0119,0,U,64603,999,5480,.69191151E-3,.20206E-3,0
STARLINK-34488,2025-137L,2026-06-09T13:34:35.381856,15.30215085,.00018057,53.1608,268.3332,86.8022,273.3185,0,U,64604,999,5480,.91401239E-3,.26822E-3,0
STARLINK-34516,2025-137M,2026-06-09T13:46:50.972448,15.31726419,.00015081,53.1599,267.6839,93.7346,266.3828,0,U,64605,999,5491,.6702151E-3,.20507E-3,0
STARLINK-34073,2025-137N,2026-06-09T11:54:27.892224,15.30239516,.00015855,53.1600,268.6038,90.6923,269.4259,0,U,64606,999,5467,.84137605E-3,.24673E-3,0
STARLINK-34532,2025-137P,2026-06-09T22:00:01.999584,15.33577262,.0001305,53.1598,276.9337,78.4769,267.7408,0,U,64607,999,591,-.69855469E-3,-.23296E-3,0
STARLINK-34519,2025-137Q,2026-06-09T13:48:15.929568,15.30223717,.00014557,53.1602,268.3921,82.1111,278.0055,0,U,64608,999,5480,.45632137E-3,.1319E-3,0
STARLINK-34513,2025-137R,2026-06-09T13:43:42.532320,15.30202808,.00011824,53.1599,268.3714,86.6590,273.4546,0,U,64609,999,5489,.85477685E-3,.25044E-3,0
STARLINK-34569,2025-137S,2026-06-09T19:07:30.305856,15.32033092,.00029272,53.1581,267.6407,73.6235,286.5089,0,U,64610,999,5483,.19204244E-1,.648182E-2,0
STARLINK-34494,2025-137T,2026-06-09T18:39:32.265792,15.30218659,.00009131,53.1585,267.5189,89.7563,270.3542,0,U,64611,999,5483,.76338573E-3,.22331E-3,0
STARLINK-34521,2025-137U,2026-06-09T13:42:09.847584,15.30206062,.00013864,53.1593,268.3600,86.9711,273.1448,0,U,64612,999,5480,-.87727767E-3,-.26256E-3,0
STARLINK-34500,2025-137V,2026-06-09T22:00:01.999584,15.33564072,.00014522,53.1589,266.9779,74.6423,278.5517,0,U,64613,999,591,-.10008671E-3,-.3665E-4,0
STARLINK-34440,2025-137W,2026-06-09T14:04:58.591200,15.30195374,.00009993,53.1584,268.4612,77.0277,283.0835,0,U,64614,999,5480,.86070854E-3,.25215E-3,0
STARLINK-34469,2025-137X,2026-06-09T13:22:25.942944,15.30229586,.00019997,53.1615,268.2730,106.2471,253.8750,0,U,64615,999,5480,.64844629E-3,.18912E-3,0
STARLINK-34413,2025-137Y,2026-06-09T14:16:45.973056,15.33581558,.00005669,53.1584,268.5105,94.3243,265.7824,0,U,64616,999,5490,.98145535E-3,.32077E-3,0
STARLINK-34417,2025-137Z,2026-06-09T12:55:39.888768,15.34407558,.00008329,53.1589,255.1588,64.4907,295.6181,0,U,64617,999,5508,.84182978E-3,.2818E-3,0
STARLINK-34415,2025-137AA,2026-06-09T13:51:18.259488,15.30209077,.00015374,53.1603,268.4022,93.3894,266.7283,0,U,64618,999,5480,.98826561E-3,.29033E-3,0
STARLINK-34416,2025-137AB,2026-06-09T13:46:44.787936,15.30228864,.00013435,53.1590,268.3788,75.9855,284.1296,0,U,64619,999,5480,.89356281E-3,.26223E-3,0
STARLINK-34414,2025-137AC,2026-06-09T14:21:41.413536,15.30212066,.00011915,53.1570,268.5289,107.8038,252.3093,0,U,64620,999,5480,.89050084E-3,.26117E-3,0
STARLINK-34464,2025-139A,2026-06-09T00:27:45.610560,15.34409890,.00011628,53.1596,61.6593,85.4776,274.6359,0,U,64664,999,5428,.69412049E-3,.23156E-3,0
STARLINK-34555,2025-139B,2026-06-09T00:24:43.836192,15.34409042,.0001159,53.1585,61.6459,97.5143,262.5991,0,U,64665,999,5418,.62620403E-3,.20846E-3,0
STARLINK-34390,2025-139C,2026-06-09T10:32:49.463232,15.34416140,.00015343,53.1594,59.3020,78.9106,281.2069,0,U,64666,999,5441,.98428876E-3,.33043E-3,0
STARLINK-34382,2025-139D,2026-06-09T09:59:05.279712,15.30215635,.00009729,53.1586,61.2793,61.1681,298.9418,0,U,64667,999,5432,.93228485E-3,.27367E-3,0
STARLINK-34395,2025-139E,2026-06-09T09:59:37.324608,15.34411195,.00010404,53.1593,59.8681,77.7834,282.3285,0,U,64668,999,5434,.77953735E-3,.26063E-3,0
STARLINK-34394,2025-139F,2026-06-09T00:18:40.241664,15.34411341,.00013041,53.1595,61.6204,91.0398,269.0754,0,U,64669,999,5428,.63911369E-3,.21286E-3,0
STARLINK-34287,2025-139G,2026-06-09T00:09:34.945344,15.34410545,.00012555,53.1602,61.5824,88.4746,271.6400,0,U,64670,999,5428,.60822466E-3,.20236E-3,0
STARLINK-34365,2025-139H,2026-06-09T00:42:54.634464,15.34433214,.00013403,53.1592,61.7171,75.3861,284.7290,0,U,64671,999,5434,.97845765E-3,.32862E-3,0
STARLINK-34442,2025-139J,2026-06-09T10:47:57.545376,15.34438902,.00015487,53.1623,59.3616,77.7196,282.3980,0,U,64672,999,5435,.76847966E-3,.25709E-3,0
STARLINK-34288,2025-139K,2026-06-09T10:57:03.526848,15.34423534,.00008699,53.1596,59.4050,76.9063,283.2036,0,U,64673,999,5435,.94448946E-3,.31694E-3,0
STARLINK-34539,2025-139L,2026-06-09T10:41:54.623040,15.34398306,.00011405,53.1613,59.3362,93.8911,266.2222,0,U,64674,999,5425,.9009081E-3,.30183E-3,0
