STARLINK-34435          
1 64602U 25137J   26160.58995537  .00017000  00000+0  58432-3 0  9994
2 64602  53.1593 268.4868 0001556  99.3188 260.7989 15.30224947 54808
STARLINK-34475          
1 64603U 25137K   26160.58361895  .00020206  00000+0  69191-3 0  9995
2 64603  53.1602 268.4479 0001454  99.1047 261.0119 15.30227290 54800
STARLINK-34488          
1 64604U 25137L   26160.56568729  .00026822  00000+0  91401-3 0  9998
2 64604  53.1608 268.3332 0001805  86.8022 273.3185 15.30215085 54808
STARLINK-34516          
1 64605U 25137M   26160.57420107  .00020507  00000+0  67022-3 0  9993
2 64605  53.1599 267.6839 0001508  93.7346 266.3828 15.31726419 54915
STARLINK-34073          
1 64606U 25137N   26160.49615616  .00024673  00000+0  84138-3 0  9991
2 64606  53.1600 268.6038 0001585  90.6923 269.4259 15.30239516 54674
STARLINK-34532          
1 64607U 25137P   26160.91668981 -.00023296  00000+0 -69855-3 0  9993
2 64607  53.1598 276.9337 0001305  78.4769 267.7408 15.33577262  5913
STARLINK-34519          
1 64608U 25137Q   26160.57518437  .00013190  00000+0  45632-3 0  9993
2 64608  53.1602 268.3921 0001455  82.1111 278.0055 15.30223717 54808
STARLINK-34513          
1 64609U 25137R   26160.57202005  .00025044  00000+0  85478-3 0  9998
2 64609  53.1599 268.3714 0001182  86.6590 273.4546 15.30202808 54892
STARLINK-34569          
1 64610U 25137S   26160.79687854  .00648182  00000+0  19204-1 0  9999
2 64610  53.1581 267.6407 0002927  73.6235 286.5089 15.32033092 54836
STARLINK-34494          
1 64611U 25137T   26160.77745678  .00022331  00000+0  76339-3 0  9993
2 64611  53.1585 267.5189 0000913  89.7563 270.3542 15.30218659 54839
STARLINK-34521          
1 64612U 25137U   26160.57094731 -.00026256  00000+0 -87728-3 0  9995
2 64612  53.1593 268.3600 0001386  86.9711 273.1448 15.30206062 54803
STARLINK-34500          
1 64613U 25137V   26160.91668981 -.00003665  00000+0 -10009-3 0  9995
2 64613  53.1589 266.9779 0001452  74.6423 278.5517 15.33564072  5913
STARLINK-34440          
1 64614U 25137W   26160.58678925  .00025215  00000+0  86071-3 0  9993
2 64614  53.1584 268.4612 0000999  77.0277 283.0835 15.30195374 54809
STARLINK-34469          
1 64615U 25137X   26160.55724471  .00018912  00000+0  64845-3 0  9990
2 64615  53.1615 268.2730 0001999 106.2471 253.8750 15.30229586 54800
STARLINK-34413          
1 64616U 25137Y   26160.59497654  .00032077  00000+0  98146-3 0  9994
2 64616  53.1584 268.5105 0000566  94.3243 265.7824 15.33581558 54906
STARLINK-34417          
1 64617U 25137Z   26160.53865612  .00028180  00000+0  84183-3 0  9998
2 64617  53.1589 255.1588 0000832  64.4907 295.6181 15.34407558 55086
STARLINK-34415          
1 64618U 25137AA  26160.57729467  .00029033  00000+0  98827-3 0  9998
2 64618  53.1603 268.4022 0001537  93.3894 266.7283 15.30209077 54806
STARLINK-34416          
1 64619U 25137AB  26160.57412949  .00026223  00000+0  89356-3 0  9998
2 64619  53.1590 268.3788 0001343  75.9855 284.1296 15.30228864 54801
STARLINK-34414          
1 64620U 25137AC  26160.59839599  .00026117  00000+0  89050-3 0  9999
2 64620  53.1570 268.5289 0001191 107.8038 252.3093 15.30212066 54807
STARLINK-34464          
1 64664U 25139A   26160.01927790  .00023156  00000+0  69412-3 0  9997
2 64664  53.1596  61.6593 0001162  85.4776 274.6359 15.34409890 54282
STARLINK-34555          
1 64665U 25139B   26160.01717403  .00020846  00000+0  62620-3 0  9993
2 64665  53.1585  61.6459 0001159  97.5143 262.5991 15.34409042 54186
STARLINK-34390          
1 64666U 25139C   26160.43946138  .00033043  00000+0  98429-3 0  9998
2 64666  53.1594  59.3020 0001534  78.9106 281.2069 15.34416140 54411
STARLINK-34382          
1 64667U 25139D   26160.41603333  .00027367  00000+0  93228-3 0  9998
2 64667  53.1586  61.2793 0000972  61.1681 298.9418 15.30215635 54324
STARLINK-34395          
1 64668U 25139E   26160.41640422  .00026063  00000+0  77954-3 0  9999
2 64668  53.1593  59.8681 0001040  77.7834 282.3285 15.34411195 54346
STARLINK-34394          
1 64669U 25139F   26160.01296576  .00021286  00000+0  63911-3 0  9993
2 64669  53.1595  61.6204 0001304  91.0398 269.0754 15.34411341 54287
STARLINK-34287          
1 64670U 25139G   26160.00665446  .00020236  00000+0  60822-3 0  9992
2 64670  53.1602  61.5824 0001255  88.4746 271.6400 15.34410545 54289
STARLINK-34365          
1 64671U 25139H   26160.02979901  .00032862  00000+0  97846-3 0  9993
2 64671  53.1592  61.7171 0001340  75.3861 284.7290 15.34433214 54340
STARLINK-34442          
1 64672U 25139J   26160.44997159  .00025709  00000+0  76848-3 0  9996
2 64672  53.1623  59.3616 0001548  77.7196 282.3980 15.34438902 54350
STARLINK-34288          
1 64673U 25139K   26160.45629082  .00031694  00000+0  94449-3 0  9992
2 64673  53.1596  59.4050 0000869  76.9063 283.2036 15.34423534 54359
STARLINK-34539          
1 64674U 25139L   26160.44577110  .00030183  00000+0  90091-3 0  9997
2 64674  53.1613  59.3362 0001140  93.8911 266.2222 15.34398306 54253
